{
    "links": {
        "self": "http://www.neowsapp.com/rest/v1/neo/3771797?api_key=iIulBulltgU6a56xZRHN4H3l9WmuAYTsLGpBGhQ2"
    },
    "id": "3771797",
    "neo_reference_id": "3771797",
    "name": "(2017 FH63)",
    "designation": "2017 FH63",
    "nasa_jpl_url": "http://ssd.jpl.nasa.gov/sbdb.cgi?sstr=3771797",
    "absolute_magnitude_h": 25.1,
    "estimated_diameter": {
        "kilometers": {
            "estimated_diameter_min": 0.0253837029,
            "estimated_diameter_max": 0.0567596853
        },
        "meters": {
            "estimated_diameter_min": 25.3837029364,
            "estimated_diameter_max": 56.7596852866
        },
        "miles": {
            "estimated_diameter_min": 0.0157726969,
            "estimated_diameter_max": 0.0352688224
        },
        "feet": {
            "estimated_diameter_min": 83.279867942,
            "estimated_diameter_max": 186.2194458756
        }
    },
    "is_potentially_hazardous_asteroid": false,
    "close_approach_data": [
        {
            "close_approach_date": "2012-06-18",
            "close_approach_date_full": "2012-Jun-18 12:55",
            "epoch_date_close_approach": 1340024100000,
            "relative_velocity": {
                "kilometers_per_second": "10.2037126843",
                "kilometers_per_hour": "36733.3656634516",
                "miles_per_hour": "22824.684903493"
            },
            "miss_distance": {
                "astronomical": "0.3047209937",
                "lunar": "118.5364665493",
                "kilometers": "45585611.601803419",
                "miles": "28325585.5745044222"
            },
            "orbiting_body": "Earth"
        },
        {
            "close_approach_date": "2017-04-14",
            "close_approach_date_full": "2017-Apr-14 09:09",
            "epoch_date_close_approach": 1492160940000,
            "relative_velocity": {
                "kilometers_per_second": "5.8250435597",
                "kilometers_per_hour": "20970.1568147786",
                "miles_per_hour": "13030.0399386051"
            },
            "miss_distance": {
                "astronomical": "0.0913634806",
                "lunar": "35.5403939534",
                "kilometers": "13667782.093546322",
                "miles": "8492765.9781383636"
            },
            "orbiting_body": "Earth"
        },
        {
            "close_approach_date": "2022-04-02",
            "close_approach_date_full": "2022-Apr-02 23:15",
            "epoch_date_close_approach": 1648941300000,
            "relative_velocity": {
                "kilometers_per_second": "12.1181664342",
                "kilometers_per_hour": "43625.3991630422",
                "miles_per_hour": "27107.1264966137"
            },
            "miss_distance": {
                "astronomical": "0.2746761025",
                "lunar": "106.8490038725",
                "kilometers": "41090959.873901675",
                "miles": "25532738.496826115"
            },
            "orbiting_body": "Earth"
        }
    ],
    "orbital_data": {
        "orbit_id": "8",
        "orbit_determination_date": "2017-04-06 08:19:17",
        "first_observation_date": "2017-03-20",
        "last_observation_date": "2017-04-04",
        "data_arc_in_days": 15,
        "observations_used": 37,
        "orbit_uncertainty": "7",
        "minimum_orbit_intersection": ".0885174",
        "jupiter_tisserand_invariant": "4.714",
        "epoch_osculation": "2459000.5",
        "eccentricity": ".2517567197709895",
        "semi_major_axis": "1.397505510549749",
        "inclination": "9.045894036081638",
        "ascending_node_longitude": "3.58003074982265",
        "orbital_period": "603.4325326431846",
        "perihelion_distance": "1.045674107351862",
        "perihelion_argument": "228.4446461734483",
        "aphelion_distance": "1.749336913747636",
        "perihelion_time": "2459093.107553316154",
        "mean_anomaly": "304.7515382576678",
        "mean_motion": ".5965869927879269",
        "equinox": "J2000",
        "orbit_class": {
            "orbit_class_type": "AMO",
            "orbit_class_description": "Near-Earth asteroid orbits similar to that of 1221 Amor",
            "orbit_class_range": "1.017 AU < q (perihelion) < 1.3 AU"
        }
    },
    "is_sentry_object": false
}